DUPLEX                  
1 66906U 98067XS  26082.13188610  .00036468  00000+0  49886-3 0  9997
2 66906  51.6301   2.1718 0003129 170.5661 189.5390 15.57057045 17221
ISS OBJECT XT           
1 66907U 98067XT  26082.12744157  .00252347  00000+0  16874-2 0  9997
2 66907  51.6254 356.8640 0005369 166.1185 193.9962 15.73983745 17296
ISS OBJECT XU           
1 66908U 98067XU  26082.12443542  .00262204  00000+0  17376-2 0  9993
2 66908  51.6246 356.8387 0005602 166.2607 193.8545 15.74162534 17298
SILVERSAT               
1 66909U 98067XV  26082.15877842  .00329127  00000+0  17851-2 0  9997
2 66909  51.6225 355.5605 0006241 171.9705 188.1397 15.78521272 17314
ISS OBJECT XW           
1 66910U 98067XW  26082.12988061  .00223399  00000+0  15746-2 0  9997
2 66910  51.6244 356.8723 0005781 166.1394 193.9764 15.72839352 17294
ISS OBJECT XX           
1 66911U 98067XX  26082.12127221  .00504349  00000+0  21092-2 0  9999
2 66911  51.6200 354.5306 0007749 174.8625 185.2459 15.83698112 17315
ISS OBJECT XY           
1 66912U 98067XY  26082.18264591  .00117705  00000+0  11004-2 0  9996
2 66912  51.6273 358.7506 0004031 168.1265 191.9827 15.66386367 17265
KNACKSAT-2              
1 67683U 98067XZ  26081.98877831  .00049560  00000+0  78354-3 0  9991
2 67683  51.6322   5.7163 0009876 233.1676 126.8409 15.52915753  6853
CORAL                   
1 67684U 98067YA  26082.19230312  .00096510  00000+0  13187-2 0  9992
2 67684  51.6310   4.0749 0012327 223.6063 136.3956 15.56579310  6898
GXIBA-1                 
1 67685U 98067YB  26081.27305036  .00038654  00000+0  60489-3 0  9990
2 67685  51.6327   9.1857 0011628 227.8880 132.1122 15.53290377  6742
UITMSAT-2               
1 67686U 98067YC  26082.03372233  .00071513  00000+0  10723-2 0  9995
2 67686  51.6323   5.2680 0008734 200.8114 159.2523 15.54231876  6863
HMU-SAT2                
1 67687U 98067YD  26082.17772603  .00049630  00000+0  77754-3 0  9999
2 67687  51.6330   4.7294 0008407 204.6429 155.4161 15.53181934  6803
LEOPARD                 
1 67688U 98067YE  26082.16751554  .00057458  00000+0  87576-3 0  9991
2 67688  51.6330   4.6613 0008564 202.3440 157.7179 15.53876626  6803
CREW DRAGON 12          
1 67796U 26031A   26082.19556657  .00017435  00000+0  32964-3 0  9995
2 67796  51.6344   5.5946 0006192 222.9473 137.1033 15.48483260558340
PROGRESS-MS 33          
1 68319U 26058A   26082.05109224  .00200487  28256-4  35870-3 0  9993
2 68319  51.6358   6.8873 0011621 152.2903 207.8729 16.01170532    69
SL-4 R/B                
1 68320U 26058B   26082.28978412  .04278470  12204-4  73957-3 0  9998
2 68320  51.6527   5.5513 0018976  76.1047 284.2086 16.31507626   133
